NORAD_CAT_ID,OBJECT_NAME,OBJECT_TYPE,EPOCH,MEAN_MOTION,ECCENTRICITY,INCLINATION,RA_OF_ASC_NODE,ARG_OF_PERICENTER,MEAN_ANOMALY,BSTAR,MEAN_MOTION_DOT,MEAN_MOTION_DDOT,TLE_LINE0,TLE_LINE1,TLE_LINE2,SEMIMAJOR_AXIS,PERIOD,APOGEE,PERIGEE,DECAYED
51788.0,STARLINK-3641,PAYLOAD,2024-07-18 07:19:56,15.08847383,0.0001422,53.2166,159.8642,91.892,268.2234,7.8613e-05,9.64e-06,0.0,0 STARLINK-3641,1 51788U 22017W   24200.30551317  .00000964  00000-0  78613-4 0  9992,2 51788  53.2166 159.8642 0001422  91.8920 268.2234 15.08847383133435,6917.858,95.437,540.707,538.739,0.0
51788.0,STARLINK-3641,PAYLOAD,2024-07-19 03:59:58,15.08837396,0.0001354,53.2167,155.9991,105.6575,254.4567,3.6735e-05,2.97e-06,0.0,0 STARLINK-3641,1 51788U 22017W   24201.16664453  .00000297  00000-0  36735-4 0  9991,2 51788  53.2167 155.9991 0001354 105.6575 254.4567 15.08837396133567,6917.888,95.438,540.69,538.817,0.0
51788.0,STARLINK-3641,PAYLOAD,2024-07-19 13:32:16,15.08839473,0.0001292,53.2166,154.215,103.9048,256.2088,6.0438e-05,6.74e-06,0.0,0 STARLINK-3641,1 51788U 22017W   24201.56408254  .00000674  00000-0  60438-4 0  9996,2 51788  53.2166 154.2150 0001292 103.9048 256.2088 15.08839473133625,6917.882,95.438,540.641,538.853,0.0
51788.0,STARLINK-3641,PAYLOAD,2024-07-20 13:23:03,15.08848235,0.0001247,53.2174,149.7565,103.6407,256.4724,5.0988e-05,5.24e-06,0.0,0 STARLINK-3641,1 51788U 22017W   24202.55767851  .00000524  00000-0  50988-4 0  9990,2 51788  53.2174 149.7565 0001247 103.6407 256.4724 15.08848235133770,6917.855,95.437,540.583,538.858,0.0
51788.0,STARLINK-3641,PAYLOAD,2024-07-21 05:16:54,15.08844871,0.0001285,53.2181,146.7816,101.1492,258.9644,0.00013784,1.907e-05,0.0,0 STARLINK-3641,1 51788U 22017W   24203.22008070  .00001907  00000-0  13784-3 0  9994,2 51788  53.2181 146.7816 0001285 101.1492 258.9644 15.08844871133874,6917.866,95.437,540.619,538.842,0.0
51788.0,STARLINK-3641,PAYLOAD,2024-07-22 03:32:19,15.08840889,0.0001258,53.2169,142.6179,83.1592,276.9543,4.3362e-05,4.02e-06,0.0,0 STARLINK-3641,1 51788U 22017W   24204.14744942  .00000402  00000-0  43362-4 0  9996,2 51788  53.2169 142.6179 0001258  83.1592 276.9543 15.08840889134017,6917.878,95.437,540.613,538.872,0.0
51788.0,STARLINK-3641,PAYLOAD,2024-07-23 01:47:45,15.08831694,0.0002126,53.2161,138.4521,52.4559,307.6626,-4.1517e-05,-9.49e-06,0.0,0 STARLINK-3641,1 51788U 22017W   24205.07482768 -.00000949  00000-0 -41517-4 0  9992,2 51788  53.2161 138.4521 0002126  52.4559 307.6626 15.08831694134153,6917.906,95.438,541.242,538.3,0.0
51788.0,STARLINK-3641,PAYLOAD,2024-07-23 12:55:25,15.08846389,0.0001683,53.2181,136.3596,102.7101,257.4079,7.6162e-05,9.24e-06,0.0,0 STARLINK-3641,1 51788U 22017W   24205.53849165  .00000924  00000-0  76162-4 0  9996,2 51788  53.2181 136.3596 0001683 102.7101 257.4079 15.08846389134222,6917.861,95.437,540.89,538.562,0.0
51788.0,STARLINK-3641,PAYLOAD,2024-07-24 04:49:16,15.08853225,0.0001838,53.2179,133.3942,78.3523,281.7675,0.00021672,3.164e-05,0.0,0 STARLINK-3641,1 51788U 22017W   24206.20088527  .00003164  00000-0  21672-3 0  9992,2 51788  53.2179 133.3942 0001838  78.3523 281.7675 15.08853225134329,6917.84,95.437,540.976,538.433,0.0
51788.0,STARLINK-3641,PAYLOAD,2024-07-24 22:18:31,15.08857951,0.0001653,53.2163,130.1223,94.9186,265.1994,4.9337e-05,4.98e-06,0.0,0 STARLINK-3641,1 51788U 22017W   24206.92952615  .00000498  00000-0  49337-4 0  9995,2 51788  53.2163 130.1223 0001653  94.9186 265.1994 15.08857951134435,6917.826,95.436,540.834,538.547,0.0
51788.0,STARLINK-3641,PAYLOAD,2024-07-25 04:40:03,15.08856282,0.0001687,53.2184,128.9283,102.6062,257.5118,6.1788e-05,6.96e-06,0.0,0 STARLINK-3641,1 51788U 22017W   24207.19448190  .00000696  00000-0  61788-4 0  9997,2 51788  53.2184 128.9283 0001687 102.6062 257.5118 15.08856282134479,6917.831,95.437,540.863,538.529,0.0
51788.0,STARLINK-3641,PAYLOAD,2024-07-25 18:58:32,15.08842783,0.0001623,53.2173,126.2489,119.5962,240.5192,-7.5549e-05,-1.49e-05,0.0,0 STARLINK-3641,1 51788U 22017W   24207.79065159 -.00001490  00000-0 -75549-4 0  9998,2 51788  53.2173 126.2489 0001623 119.5962 240.5192 15.08842783134567,6917.872,95.437,540.86,538.614,0.0
51788.0,STARLINK-3641,PAYLOAD,2024-07-25 22:09:18,15.08843927,0.0001737,53.2156,125.6579,119.2886,240.828,-4.3571e-05,-9.82e-06,0.0,0 STARLINK-3641,1 51788U 22017W   24207.92312888 -.00000982  00000-0 -43571-4 0  9992,2 51788  53.2156 125.6579 0001737 119.2886 240.8280 15.08843927134583,6917.868,95.437,540.935,538.532,0.0
51788.0,STARLINK-3641,PAYLOAD,2024-07-26 04:30:50,15.08844278,0.0001515,53.2177,124.474,97.7103,262.4061,-5.2484e-05,-1.123e-05,0.0,0 STARLINK-3641,1 51788U 22017W   24208.18808957 -.00001123  00000-0 -52484-4 0  9999,2 51788  53.2177 124.4740 0001515  97.7103 262.4061 15.08844278134621,6917.867,95.437,540.78,538.684,0.0
51788.0,STARLINK-3641,PAYLOAD,2024-07-27 21:50:52,15.08832929,7.06e-05,53.2175,116.7417,29.9299,330.1733,2.7678e-05,1.53e-06,0.0,0 STARLINK-3641,1 51788U 22017W   24209.91033251  .00000153  00000-0  27678-4 0  9995,2 51788  53.2175 116.7417 0000706  29.9299 330.1733 15.08832929134885,6917.902,95.438,540.255,539.279,0.0
51788.0,STARLINK-3641,PAYLOAD,2024-07-28 01:01:39,15.08823231,0.0001438,53.2169,116.1497,77.4938,282.6215,-4.3092e-05,-9.73e-06,0.0,0 STARLINK-3641,1 51788U 22017W   24210.04282204 -.00000973  00000-0 -43092-4 0  9995,2 51788  53.2169 116.1497 0001438  77.4938 282.6215 15.08823231134906,6917.932,95.439,540.791,538.802,0.0
51788.0,STARLINK-3641,PAYLOAD,2024-07-28 21:41:40,15.08821732,0.000164,53.2168,112.2846,82.6867,277.4311,0.0001247,1.696e-05,0.0,0 STARLINK-3641,1 51788U 22017W   24210.90393779  .00001696  00000-0  12470-3 0  9996,2 51788  53.2168 112.2846 0001640  82.6867 277.4311 15.08821732135032,6917.936,95.439,540.936,538.667,0.0
51788.0,STARLINK-3641,PAYLOAD,2024-07-29 00:52:25,15.08832803,0.0001653,53.2173,111.6906,90.837,269.2812,0.0002178,3.179e-05,0.0,0 STARLINK-3641,1 51788U 22017W   24211.03640953  .00003179  00000-0  21780-3 0  9992,2 51788  53.2173 111.6906 0001653  90.8370 269.2812 15.08832803135050,6917.902,95.438,540.911,538.624,0.0
51788.0,STARLINK-3641,PAYLOAD,2024-07-29 10:24:45,15.08830583,0.0001636,53.217,109.9067,91.0919,269.026,0.00017956,2.57e-05,0.0,0 STARLINK-3641,1 51788U 22017W   24211.43385516  .00002570  00000-0  17956-3 0  9991,2 51788  53.2170 109.9067 0001636  91.0919 269.0260 15.08830583135113,6917.909,95.438,540.906,538.642,0.0
51788.0,STARLINK-3641,PAYLOAD,2024-07-29 21:32:26,15.08836615,0.000174,53.217,107.8252,90.8477,269.2715,0.00020411,2.962e-05,0.0,0 STARLINK-3641,1 51788U 22017W   24211.89753382  .00002962  00000-0  20411-3 0  9996,2 51788  53.2170 107.8252 0001740  90.8477 269.2715 15.08836615135184,6917.891,95.438,540.959,538.552,0.0
51788.0,STARLINK-3641,PAYLOAD,2024-07-30 10:15:31,15.08842824,0.0001683,53.2162,105.4433,82.7111,277.4072,0.00016456,2.332e-05,0.0,0 STARLINK-3641,1 51788U 22017W   24212.42745158  .00002332  00000-0  16456-3 0  9993,2 51788  53.2162 105.4433 0001683  82.7111 277.4072 15.08842824135266,6917.872,95.437,540.901,538.572,0.0
51788.0,STARLINK-3641,PAYLOAD,2024-07-30 22:58:36,15.08845706,0.0001856,53.217,103.0699,83.5499,276.5704,0.00012183,1.652e-05,0.0,0 STARLINK-3641,1 51788U 22017W   24212.95737125  .00001652  00000-0  12183-3 0  9993,2 51788  53.2170 103.0699 0001856  83.5499 276.5704 15.08845706135346,6917.863,95.437,541.012,538.444,0.0
51788.0,STARLINK-3641,PAYLOAD,2024-07-31 10:06:19,15.08819801,0.0001814,53.2152,100.9876,71.4784,288.6405,0.00038096,5.777e-05,0.0,0 STARLINK-3641,1 51788U 22017W   24213.42106253  .00005777  00000-0  38096-3 0  9991,2 51788  53.2152 100.9876 0001814  71.4784 288.6405 15.08819801135413,6917.942,95.439,541.062,538.552,0.0
51788.0,STARLINK-3641,PAYLOAD,2024-07-31 21:14:01,15.08835933,0.0001725,53.2161,98.906,91.961,268.1579,-5.9928e-05,-1.242e-05,0.0,0 STARLINK-3641,1 51788U 22017W   24213.88474094 -.00001242  00000-0 -59928-4 0  9995,2 51788  53.2161  98.9060 0001725  91.9610 268.1579 15.08835933135486,6917.893,95.438,540.951,538.564,0.0
51788.0,STARLINK-3641,PAYLOAD,2024-07-31 22:49:24,15.08840103,0.0001644,53.217,98.6091,92.0981,268.0199,-0.00011354,-2.095e-05,0.0,0 STARLINK-3641,1 51788U 22017W   24213.95098051 -.00002095  00000-0 -11354-3 0  9995,2 51788  53.2170  98.6091 0001644  92.0981 268.0199 15.08840103135493,6917.88,95.438,540.882,538.608,0.0
51788.0,STARLINK-3641,PAYLOAD,2024-08-01 21:04:47,15.08844284,0.0001414,53.2168,94.4436,101.796,258.319,0.00012661,1.728e-05,0.0,0 STARLINK-3641,1 51788U 22017W   24214.87832739  .00001728  00000-0  12661-3 0  9998,2 51788  53.2168  94.4436 0001414 101.7960 258.3190 15.08844284135630,6917.867,95.437,540.71,538.754,0.0
51788.0,STARLINK-3641,PAYLOAD,2024-08-02 20:55:35,15.08830416,0.000157,53.2173,89.9835,103.0935,257.0233,5.8059e-05,6.36e-06,0.0,0 STARLINK-3641,1 51788U 22017W   24215.87194099  .00000636  00000-0  58059-4 0  9998,2 51788  53.2173  89.9835 0001570 103.0935 257.0233 15.08830416135780,6917.91,95.438,540.861,538.689,0.0
51788.0,STARLINK-3641,PAYLOAD,2024-08-02 22:30:58,15.08829628,0.0001506,53.2172,89.6879,93.097,267.0194,6.6206e-05,7.66e-06,0.0,0 STARLINK-3641,1 51788U 22017W   24215.93818232  .00000766  00000-0  66206-4 0  9994,2 51788  53.2172  89.6879 0001506  93.0970 267.0194 15.08829628135791,6917.912,95.438,540.819,538.735,0.0
51788.0,STARLINK-3641,PAYLOAD,2024-08-03 08:03:17,15.08836558,0.0001437,53.2169,87.9011,87.2307,272.885,6.9236e-07,-2.77e-06,0.0,0 STARLINK-3641,1 51788U 22017W   24216.33562082 -.00000277  00000-0  69236-6 0  9994,2 51788  53.2169  87.9011 0001437  87.2307 272.8850 15.08836558135858,6917.891,95.438,540.75,538.762,0.0
51788.0,STARLINK-3641,PAYLOAD,2024-08-03 20:46:22,15.08840092,0.0001428,53.2168,85.5226,92.7782,267.3374,0.00017157,2.444e-05,0.0,0 STARLINK-3641,1 51788U 22017W   24216.86553328  .00002444  00000-0  17157-3 0  9994,2 51788  53.2168  85.5226 0001428  92.7782 267.3374 15.08840092135934,6917.88,95.438,540.733,538.757,0.0
